NORAD_CAT_ID,OBJECT_NAME,OBJECT_TYPE,EPOCH,MEAN_MOTION,ECCENTRICITY,INCLINATION,RA_OF_ASC_NODE,ARG_OF_PERICENTER,MEAN_ANOMALY,BSTAR,MEAN_MOTION_DOT,MEAN_MOTION_DDOT,TLE_LINE0,TLE_LINE1,TLE_LINE2,SEMIMAJOR_AXIS,PERIOD,APOGEE,PERIGEE,DECAYED
53914.0,STARLINK-5040,PAYLOAD,2023-02-23 13:25:09,15.08843561,8.19e-05,53.2158,257.6272,97.5793,262.5293,0.00033329,5.021e-05,0.0,0 STARLINK-5040,1 53914U 22119AE  23054.55914009  .00005021  00000-0  33329-3 0  9995,2 53914  53.2158 257.6272 0000819  97.5793 262.5293 15.08843561 24238,6917.87,95.437,540.301,539.168,0.0
53914.0,STARLINK-5040,PAYLOAD,2023-02-23 19:46:42,15.08847257,7.36e-05,53.2158,256.4383,89.0231,271.0846,0.00048082,7.374e-05,0.0,0 STARLINK-5040,1 53914U 22119AE  23054.82409936  .00007374  00000-0  48082-3 0  9998,2 53914  53.2158 256.4383 0000736  89.0231 271.0846 15.08847257 24278,6917.858,95.437,540.232,539.214,0.0
53914.0,STARLINK-5040,PAYLOAD,2023-02-23 22:57:28,15.0885344,8.75e-05,53.216,255.8432,94.1626,265.9466,0.00066466,0.0001031,0.0,0 STARLINK-5040,1 53914U 22119AE  23054.95657820  .00010310  00000-0  66466-3 0  9999,2 53914  53.2160 255.8432 0000875  94.1626 265.9466 15.08853440 23874,6917.839,95.437,540.31,539.099,0.0
53914.0,STARLINK-5040,PAYLOAD,2023-02-24 13:15:56,15.08841852,7.33e-05,53.2166,253.1665,86.4365,273.6711,0.00020217,2.931e-05,0.0,0 STARLINK-5040,1 53914U 22119AE  23055.55274068  .00002931  00000-0  20217-3 0  9999,2 53914  53.2166 253.1665 0000733  86.4365 273.6711 15.08841852 24386,6917.875,95.437,540.247,539.233,0.0
53914.0,STARLINK-5040,PAYLOAD,2023-02-24 19:37:29,15.08841642,7.58e-05,53.2172,251.9779,78.5685,281.5393,0.00019622,2.837e-05,0.0,0 STARLINK-5040,1 53914U 22119AE  23055.81770136  .00002837  00000-0  19622-3 0  9998,2 53914  53.2172 251.9779 0000758  78.5685 281.5393 15.08841642 24009,6917.875,95.437,540.265,539.216,0.0
53914.0,STARLINK-5040,PAYLOAD,2023-02-25 13:06:44,15.08838496,9.17e-05,53.2155,248.7043,82.4272,277.6825,0.00014007,1.942e-05,0.0,0 STARLINK-5040,1 53914U 22119AE  23056.54634339  .00001942  00000-0  14007-3 0  9991,2 53914  53.2155 248.7043 0000917  82.4272 277.6825 15.08838496 24538,6917.885,95.438,540.384,539.116,0.0
53914.0,STARLINK-5040,PAYLOAD,2023-02-25 19:28:16,15.08843518,8.88e-05,53.2154,247.5151,81.4766,278.6326,0.00013438,1.852e-05,0.0,0 STARLINK-5040,1 53914U 22119AE  23056.81130185  .00001852  00000-0  13438-3 0  9998,2 53914  53.2154 247.5151 0000888  81.4766 278.6326 15.08843518 24570,6917.87,95.437,540.349,539.12,0.0
53914.0,STARLINK-5040,PAYLOAD,2023-02-26 05:00:35,15.08844883,8.57e-05,53.2159,245.7314,79.0475,281.0613,0.00020797,3.024e-05,0.0,0 STARLINK-5040,1 53914U 22119AE  23057.20874197  .00003024  00000-0  20797-3 0  9999,2 53914  53.2159 245.7314 0000857  79.0475 281.0613 15.08844883 24216,6917.865,95.437,540.323,539.138,0.0
53914.0,STARLINK-5040,PAYLOAD,2023-02-26 12:57:31,15.08836306,9.72e-05,53.218,244.2487,84.375,275.7353,7.2609e-05,8.68e-06,0.0,0 STARLINK-5040,1 53914U 22119AE  23057.53994666  .00000868  00000-0  72609-4 0  9992,2 53914  53.2180 244.2487 0000972  84.3750 275.7353 15.08836306 24681,6917.892,95.438,540.429,539.084,0.0
53914.0,STARLINK-5040,PAYLOAD,2023-02-26 19:19:04,15.08836499,9.84e-05,53.2178,243.0587,87.0522,273.0582,8.0927e-05,1e-05,0.0,0 STARLINK-5040,1 53914U 22119AE  23057.80490810  .00001000  00000-0  80927-4 0  9995,2 53914  53.2178 243.0587 0000984  87.0522 273.0582 15.08836499 24303,6917.891,95.438,540.437,539.075,0.0
53914.0,STARLINK-5040,PAYLOAD,2023-02-27 04:51:22,15.08843599,0.0001024,53.2178,241.2745,86.5777,273.5332,0.0001632,2.311e-05,0.0,0 STARLINK-5040,1 53914U 22119AE  23058.20234599  .00002311  00000-0  16320-3 0  9991,2 53914  53.2178 241.2745 0001024  86.5777 273.5332 15.08843599 24780,6917.869,95.437,540.443,539.026,0.0
53914.0,STARLINK-5040,PAYLOAD,2023-02-27 19:09:49,15.08870062,0.0001096,53.2175,238.5981,94.1178,265.994,0.00060871,9.421e-05,0.0,0 STARLINK-5040,1 53914U 22119AE  23058.79849357  .00009421  00000-0  60871-3 0  9998,2 53914  53.2175 238.5981 0001096  94.1178 265.9940 15.08870062 24456,6917.789,95.436,540.412,538.895,0.0
53914.0,STARLINK-5040,PAYLOAD,2023-02-27 20:45:13,15.08869216,9.79e-05,53.2172,238.2996,87.5824,272.528,0.00073326,0.0001141,0.0,0 STARLINK-5040,1 53914U 22119AE  23058.86473463  .00011410  00000-0  73326-3 0  9997,2 53914  53.2172 238.2996 0000979  87.5824 272.5280 15.08869216 24886,6917.791,95.436,540.333,538.979,0.0
53914.0,STARLINK-5040,PAYLOAD,2023-02-28 12:39:05,15.08845067,0.0001695,53.2166,235.3263,92.1753,267.9433,9.4846e-05,1.222e-05,0.0,0 STARLINK-5040,1 53914U 22119AE  23059.52714151  .00001222  00000-0  94846-4 0  9994,2 53914  53.2166 235.3263 0001695  92.1753 267.9433 15.08845067 24564,6917.865,95.437,540.902,538.557,0.0
53914.0,STARLINK-5040,PAYLOAD,2023-02-28 19:00:37,15.08830244,9.24e-05,53.2164,234.1365,107.0575,253.0518,-5.7355e-05,-1.2e-05,0.0,0 STARLINK-5040,1 53914U 22119AE  23059.79210474 -.00001200  00000-0 -57355-4 0  9994,2 53914  53.2164 234.1365 0000924 107.0575 253.0518 15.08830244 24600,6917.91,95.438,540.414,539.136,0.0
53914.0,STARLINK-5040,PAYLOAD,2023-02-28 20:36:01,15.08828895,9.22e-05,53.2161,233.8389,105.0895,255.0199,-3.6568e-06,-3.46e-06,0.0,0 STARLINK-5040,1 53914U 22119AE  23059.85834569 -.00000346  00000-0 -36568-5 0  9992,2 53914  53.2161 233.8389 0000922 105.0895 255.0199 15.08828895 25034,6917.914,95.438,540.417,539.142,0.0
53914.0,STARLINK-5040,PAYLOAD,2023-03-01 04:32:57,15.0883151,0.0001002,53.216,232.3521,106.0749,254.0353,0.00060767,9.394e-05,0.0,0 STARLINK-5040,1 53914U 22119AE  23060.18954989  .00009394  00000-0  60767-3 0  9995,2 53914  53.2160 232.3521 0001002 106.0749 254.0353 15.08831510 25088,6917.906,95.438,540.465,539.078,0.0
53914.0,STARLINK-5040,PAYLOAD,2023-03-01 22:02:11,15.08850475,9.62e-05,53.2158,229.0808,104.7611,255.3488,0.00086788,0.00013555,0.0,0 STARLINK-5040,1 53914U 22119AE  23060.91818945  .00013555  00000-0  86788-3 0  9992,2 53914  53.2158 229.0808 0000962 104.7611 255.3488 15.08850475 24772,6917.848,95.437,540.379,539.048,0.0
53914.0,STARLINK-5040,PAYLOAD,2023-03-02 17:06:49,15.08847435,0.0001201,53.2154,225.5123,93.7754,266.3376,0.00082524,0.00012873,0.0,0 STARLINK-5040,1 53914U 22119AE  23061.71307129  .00012873  00000-0  82524-3 0  9994,2 53914  53.2154 225.5123 0001201  93.7754 266.3376 15.08847435 24894,6917.858,95.437,540.553,538.892,0.0
53914.0,STARLINK-5040,PAYLOAD,2023-03-03 04:14:31,15.08845069,0.0001564,53.2153,223.4319,75.9505,284.1661,0.00059265,9.158e-05,0.0,0 STARLINK-5040,1 53914U 22119AE  23062.17675216  .00009158  00000-0  59265-3 0  9998,2 53914  53.2153 223.4319 0001564  75.9505 284.1661 15.08845069 24969,6917.865,95.437,540.812,538.648,0.0
53914.0,STARLINK-5040,PAYLOAD,2023-03-03 10:36:03,15.08856168,0.0001638,53.2153,222.2428,69.2869,290.8299,0.00074028,0.00011518,0.0,0 STARLINK-5040,1 53914U 22119AE  23062.44171026  .00011518  00000-0  74028-3 0  9995,2 53914  53.2153 222.2428 0001638  69.2869 290.8299 15.08856168 25423,6917.831,95.437,540.829,538.563,0.0
53914.0,STARLINK-5040,PAYLOAD,2023-03-03 16:57:35,15.08865286,0.0001007,53.2164,221.0522,74.853,285.2573,0.0011175,0.00017554,0.0,0 STARLINK-5040,1 53914U 22119AE  23062.70666499  .00017554  00000-0  11175-2 0  9996,2 53914  53.2164 221.0522 0001007  74.8530 285.2573 15.08865286 25462,6917.803,95.436,540.365,538.971,0.0
53914.0,STARLINK-5040,PAYLOAD,2023-03-04 12:02:13,15.08856272,0.0001401,53.2135,217.4839,65.3783,294.7355,0.00075363,0.00011732,0.0,0 STARLINK-5040,1 53914U 22119AE  23063.50154403  .00011732  00000-0  75363-3 0  9994,2 53914  53.2135 217.4839 0001401  65.3783 294.7355 15.08856272 25584,6917.831,95.437,540.665,538.726,0.0
53914.0,STARLINK-5040,PAYLOAD,2023-03-04 15:12:59,15.08852982,0.0001052,53.2152,216.8882,65.0272,295.0829,0.00060287,9.323e-05,0.0,0 STARLINK-5040,1 53914U 22119AE  23063.63402372  .00009323  00000-0  60287-3 0  9991,2 53914  53.2152 216.8882 0001052  65.0272 295.0829 15.08852982 25186,6917.841,95.437,540.433,538.978,0.0
53914.0,STARLINK-5040,PAYLOAD,2023-03-04 19:59:08,15.08858747,0.0001099,53.2163,215.9964,70.9974,289.1137,0.00053087,8.175e-05,0.0,0 STARLINK-5040,1 53914U 22119AE  23063.83274110  .00008175  00000-0  53087-3 0  9994,2 53914  53.2163 215.9964 0001099  70.9974 289.1137 15.08858747 25635,6917.823,95.436,540.448,538.928,0.0
53914.0,STARLINK-5040,PAYLOAD,2023-03-05 10:17:37,15.08833546,0.0001087,53.2173,213.3207,92.5813,267.5304,0.00038768,5.886e-05,0.0,0 STARLINK-5040,1 53914U 22119AE  23064.42890734  .00005886  00000-0  38768-3 0  9991,2 53914  53.2173 213.3207 0001087  92.5813 267.5304 15.08833546 25307,6917.9,95.438,540.517,539.013,0.0
53914.0,STARLINK-5040,PAYLOAD,2023-03-05 16:39:10,15.08841648,0.0001163,53.2177,212.1313,95.1583,264.9542,0.00083801,0.00013075,0.0,0 STARLINK-5040,1 53914U 22119AE  23064.69386821  .00013075  00000-0  83801-3 0  9994,2 53914  53.2177 212.1313 0001163  95.1583 264.9542 15.08841648 25761,6917.875,95.437,540.545,538.936,0.0
53914.0,STARLINK-5040,PAYLOAD,2023-03-06 19:40:42,15.08861062,0.0001063,53.2175,207.0758,87.236,272.8754,0.00070736,0.00010994,0.0,0 STARLINK-5040,1 53914U 22119AE  23065.81994206  .00010994  00000-0  70736-3 0  9991,2 53914  53.2175 207.0758 0001063  87.2360 272.8754 15.08861062 25517,6917.816,95.436,540.416,538.946,0.0
53914.0,STARLINK-5040,PAYLOAD,2023-03-07 02:02:16,15.08847172,0.0001766,53.2181,205.887,79.5488,280.5703,0.00018154,2.603e-05,0.0,0 STARLINK-5040,1 53914U 22119AE  23066.08490940  .00002603  00000-0  18154-3 0  9991,2 53914  53.2181 205.8870 0001766  79.5488 280.5703 15.08847172 25550,6917.858,95.437,540.945,538.502,0.0
53914.0,STARLINK-5040,PAYLOAD,2023-03-07 17:56:07,15.08844089,0.000148,53.2174,202.9125,77.4815,282.6343,0.00022716,3.33e-05,0.0,0 STARLINK-5040,1 53914U 22119AE  23066.74730395  .00003330  00000-0  22716-3 0  9992,2 53914  53.2174 202.9125 0001480  77.4815 282.6343 15.08844089 26072,6917.868,95.437,540.757,538.709,0.0
